[{"OBJECT_NAME":"ALSAT-2B","OBJECT_ID":"2016-059D","EPOCH":"2026-03-09T22:53:14.170272","MEAN_MOTION":14.70730607,"ECCENTRICITY":0.00016779,"INCLINATION":98.0009,"RA_OF_ASC_NODE":133.0936,"ARG_OF_PERICENTER":116.373,"MEAN_ANOMALY":243.7649,"EPHEMERIS_TYPE":0,"CLASSIFICATION_TYPE":"U","NORAD_CAT_ID":41786,"ELEMENT_SET_NO":999,"REV_AT_EPOCH":50618,"BSTAR":0.00022227999,"MEAN_MOTION_DOT":1.307e-5,"MEAN_MOTION_DDOT":0},{"OBJECT_NAME":"CZ-6A DEB","OBJECT_ID":"2024-140Z","EPOCH":"2026-03-09T15:39:03.556800","MEAN_MOTION":14.56855121,"ECCENTRICITY":0.011048,"INCLINATION":89.0337,"RA_OF_ASC_NODE":284.6036,"ARG_OF_PERICENTER":236.7965,"MEAN_ANOMALY":122.2615,"EPHEMERIS_TYPE":0,"CLASSIFICATION_TYPE":"U","NORAD_CAT_ID":60624,"ELEMENT_SET_NO":999,"REV_AT_EPOCH":8419,"BSTAR":0.00043543,"MEAN_MOTION_DOT":2.137e-5,"MEAN_MOTION_DDOT":0}]
